NORAD_CAT_ID,OBJECT_NAME,OBJECT_TYPE,EPOCH,MEAN_MOTION,ECCENTRICITY,INCLINATION,RA_OF_ASC_NODE,ARG_OF_PERICENTER,MEAN_ANOMALY,BSTAR,MEAN_MOTION_DOT,MEAN_MOTION_DDOT,TLE_LINE0,TLE_LINE1,TLE_LINE2,SEMIMAJOR_AXIS,PERIOD,APOGEE,PERIGEE,DECAYED
53432.0,STARLINK-4557,PAYLOAD,2024-08-10 04:17:46,15.0884417,0.0001203,53.2171,171.9401,90.0407,270.0723,0.00014386,2.003e-05,0.0,0 STARLINK-4557,1 53432U 22097AW  24223.17901161  .00002003  00000-0  14386-3 0  9996,2 53432  53.2171 171.9401 0001203  90.0407 270.0723 15.08844170111751,6917.868,95.437,540.565,538.9,0.0
53432.0,STARLINK-4557,PAYLOAD,2024-08-10 20:11:38,15.0884525,0.0001273,53.2171,168.9642,115.4864,244.626,-5.294e-05,-1.13e-05,0.0,0 STARLINK-4557,1 53432U 22097AW  24223.84141764 -.00001130  00000-0 -52940-4 0  9996,2 53432  53.2171 168.9642 0001273 115.4864 244.6260 15.08845250111371,6917.864,95.437,540.61,538.849,0.0
53432.0,STARLINK-4557,PAYLOAD,2024-08-11 02:33:10,15.08854602,0.0001593,53.2166,167.7775,111.9382,248.1779,2.6264e-05,1.3e-06,0.0,0 STARLINK-4557,1 53432U 22097AW  24224.10636832  .00000130  00000-0  26264-4 0  9998,2 53432  53.2166 167.7775 0001593 111.9382 248.1779 15.08854602111410,6917.836,95.437,540.803,538.599,0.0
53432.0,STARLINK-4557,PAYLOAD,2024-08-11 05:43:53,15.08888572,0.0001327,53.2171,167.1804,109.9698,250.1437,0.00031896,4.799e-05,0.0,0 STARLINK-4557,1 53432U 22097AW  24224.23881766  .00004799  00000-0  31896-3 0  9991,2 53432  53.2171 167.1804 0001327 109.9698 250.1437 15.08888572111434,6917.732,95.434,540.515,538.679,0.0
53432.0,STARLINK-4557,PAYLOAD,2024-08-11 13:40:52,15.08850294,0.0002146,53.2173,165.695,84.1688,275.9549,-1.1276e-05,-4.68e-06,0.0,0 STARLINK-4557,1 53432U 22097AW  24224.57005112 -.00000468  00000-0 -11276-4 0  9993,2 53432  53.2173 165.6950 0002146  84.1688 275.9549 15.08850294111488,6917.849,95.437,541.198,538.229,0.0
53432.0,STARLINK-4557,PAYLOAD,2024-08-12 02:23:57,15.08842773,0.0001461,53.216,163.3122,91.9605,268.1555,0.00016252,2.3e-05,0.0,0 STARLINK-4557,1 53432U 22097AW  24225.09997059  .00002300  00000-0  16252-3 0  9994,2 53432  53.2160 163.3122 0001461  91.9605 268.1555 15.08842773111567,6917.872,95.437,540.748,538.726,0.0
53432.0,STARLINK-4557,PAYLOAD,2024-08-12 05:34:42,15.0886892,0.0001477,53.2168,162.7214,81.9808,278.1352,0.00034653,5.236e-05,0.0,0 STARLINK-4557,1 53432U 22097AW  24225.23243598  .00005236  00000-0  34653-3 0  9998,2 53432  53.2168 162.7214 0001477  81.9808 278.1352 15.08868920111581,6917.792,95.436,540.679,538.635,0.0
53432.0,STARLINK-4557,PAYLOAD,2024-08-12 13:31:38,15.08850169,0.0001584,53.2164,161.2356,88.5102,271.6071,5.2754e-05,5.52e-06,0.0,0 STARLINK-4557,1 53432U 22097AW  24225.56364332  .00000552  00000-0  52754-4 0  9993,2 53432  53.2164 161.2356 0001584  88.5102 271.6071 15.08850169112119,6917.849,95.437,540.81,538.619,0.0
53432.0,STARLINK-4557,PAYLOAD,2024-08-12 19:53:11,15.08853349,0.0001917,53.2171,160.0434,102.2551,257.8656,-3.7297e-05,-8.82e-06,0.0,0 STARLINK-4557,1 53432U 22097AW  24225.82860213 -.00000882  00000-0 -37297-4 0  9994,2 53432  53.2171 160.0434 0001917 102.2551 257.8656 15.08853349111671,6917.84,95.437,541.031,538.378,0.0
53432.0,STARLINK-4557,PAYLOAD,2024-08-12 23:03:57,15.08858961,0.0001747,53.2147,159.45,104.6205,255.4981,0.00015013,2.103e-05,0.0,0 STARLINK-4557,1 53432U 22097AW  24225.96107767  .00002103  00000-0  15013-3 0  9994,2 53432  53.2147 159.4500 0001747 104.6205 255.4981 15.08858961112179,6917.822,95.436,540.896,538.479,0.0
53432.0,STARLINK-4557,PAYLOAD,2024-08-13 05:25:32,15.08791003,0.0001829,53.2165,158.2598,90.8531,269.2671,-0.0010599,-0.00017094,0.0,0 STARLINK-4557,1 53432U 22097AW  24226.22606677 -.00017094  00000-0 -10599-2 0  9998,2 53432  53.2165 158.2598 0001829  90.8531 269.2671 15.08791003111735,6918.03,95.441,541.16,538.63,0.0
53432.0,STARLINK-4557,PAYLOAD,2024-08-13 22:54:48,15.08799096,0.0001492,53.2162,154.9965,68.1623,291.9528,-0.00031673,-5.319e-05,0.0,0 STARLINK-4557,1 53432U 22097AW  24226.95472434 -.00005319  00000-0 -31673-3 0  9994,2 53432  53.2162 154.9965 0001492  68.1623 291.9528 15.08799096112328,6918.005,95.44,540.903,538.838,0.0
53432.0,STARLINK-4557,PAYLOAD,2024-08-14 02:05:34,15.08801072,0.00018,53.2156,154.395,85.6926,274.4271,-0.00031246,-5.252e-05,0.0,0 STARLINK-4557,1 53432U 22097AW  24227.08720324 -.00005252  00000-0 -31246-3 0  9995,2 53432  53.2156 154.3950 0001800  85.6926 274.4271 15.08801072111869,6917.999,95.44,541.11,538.619,0.0
53432.0,STARLINK-4557,PAYLOAD,2024-08-14 11:37:52,15.08827233,0.0001532,53.2167,152.6145,85.772,274.3447,0.00023361,3.431e-05,0.0,0 STARLINK-4557,1 53432U 22097AW  24227.48463982  .00003431  00000-0  23361-3 0  9997,2 53432  53.2167 152.6145 0001532  85.7720 274.3447 15.08827233111921,6917.919,95.438,540.844,538.725,0.0
53432.0,STARLINK-4557,PAYLOAD,2024-08-14 22:45:35,15.08843893,0.0001395,53.214,150.5285,61.2605,298.8527,0.0010507,0.00016475,0.0,0 STARLINK-4557,1 53432U 22097AW  24227.94832288  .00016475  00000-0  10507-2 0  9996,2 53432  53.2140 150.5285 0001395  61.2605 298.8527 15.08843893112473,6917.868,95.437,540.699,538.768,0.0
53432.0,STARLINK-4557,PAYLOAD,2024-08-15 00:20:57,15.08859065,0.0001321,53.2148,150.2337,81.5753,278.5389,0.00134,0.00021114,0.0,0 STARLINK-4557,1 53432U 22097AW  24228.01455969  .00021114  00000-0  13400-2 0  9993,2 53432  53.2148 150.2337 0001321  81.5753 278.5389 15.08859065112002,6917.822,95.436,540.601,538.773,0.0
53432.0,STARLINK-4557,PAYLOAD,2024-08-15 11:28:39,15.08874216,0.0001333,53.2135,148.1503,64.9696,295.1434,0.0007427,0.00011563,0.0,0 STARLINK-4557,1 53432U 22097AW  24228.47823002  .00011563  00000-0  74270-3 0  9990,2 53432  53.2135 148.1503 0001333  64.9696 295.1434 15.08874216112554,6917.776,95.435,540.563,538.719,0.0
53432.0,STARLINK-4557,PAYLOAD,2024-08-15 22:36:20,15.08866133,0.0001251,53.2147,146.0708,99.6443,260.4691,0.00036997,5.609e-05,0.0,0 STARLINK-4557,1 53432U 22097AW  24228.94190465  .00005609  00000-0  36997-3 0  9990,2 53432  53.2147 146.0708 0001251  99.6443 260.4691 15.08866133112622,6917.801,95.436,540.531,538.8,0.0
53432.0,STARLINK-4557,PAYLOAD,2024-08-16 01:47:06,15.08866464,0.0001187,53.2151,145.4762,99.7438,260.3688,0.0018446,0.00029212,0.0,0 STARLINK-4557,1 53432U 22097AW  24229.07438443  .00029212  00000-0  18446-2 0  9990,2 53432  53.2151 145.4762 0001187  99.7438 260.3688 15.08866464112164,6917.8,95.436,540.486,538.843,0.0
53432.0,STARLINK-4557,PAYLOAD,2024-08-17 03:13:16,15.08853071,0.0001359,53.2148,140.7225,121.9163,238.1961,0.00049011,7.524e-05,0.0,0 STARLINK-4557,1 53432U 22097AW  24230.13422067  .00007524  00000-0  49011-3 0  9999,2 53432  53.2148 140.7225 0001359 121.9163 238.1961 15.08853071112321,6917.84,95.437,540.646,538.765,0.0
53432.0,STARLINK-4557,PAYLOAD,2024-08-18 01:28:41,15.08839066,0.0001362,53.215,136.5576,83.1889,276.9258,0.00078936,0.00012297,0.0,0 STARLINK-4557,1 53432U 22097AW  24231.06158756  .00012297  00000-0  78936-3 0  9994,2 53432  53.2150 136.5576 0001362  83.1889 276.9258 15.08839066112466,6917.883,95.438,540.69,538.806,0.0
53432.0,STARLINK-4557,PAYLOAD,2024-08-18 22:08:41,15.08859468,0.0001663,53.216,132.6926,65.5578,294.5588,0.00083818,0.00013084,0.0,0 STARLINK-4557,1 53432U 22097AW  24231.92270369  .00013084  00000-0  83818-3 0  9994,2 53432  53.2160 132.6926 0001663  65.5578 294.5588 15.08859468113074,6917.821,95.436,540.836,538.535,0.0
53432.0,STARLINK-4557,PAYLOAD,2024-08-19 10:51:46,15.08853395,0.0001374,53.2158,130.31,103.5149,256.5996,0.00033306,5.019e-05,0.0,0 STARLINK-4557,1 53432U 22097AW  24232.45262021  .00005019  00000-0  33306-3 0  9995,2 53432  53.2158 130.3100 0001374 103.5149 256.5996 15.08853395112675,6917.839,95.437,540.655,538.754,0.0
53432.0,STARLINK-4557,PAYLOAD,2024-08-20 02:45:38,15.08833474,0.0001714,53.2168,127.3343,93.7703,266.3486,0.0002232,3.265e-05,0.0,0 STARLINK-4557,1 53432U 22097AW  24233.11502744  .00003265  00000-0  22320-3 0  9993,2 53432  53.2168 127.3343 0001714  93.7703 266.3486 15.08833474112775,6917.9,95.438,540.951,538.58,0.0
53432.0,STARLINK-4557,PAYLOAD,2024-08-21 02:36:25,15.08862204,0.0001719,53.216,122.8748,91.0971,269.0218,0.0010725,0.00016832,0.0,0 STARLINK-4557,1 53432U 22097AW  24234.10862512  .00016832  00000-0  10725-2 0  9994,2 53432  53.2160 122.8748 0001719  91.0971 269.0218 15.08862204112922,6917.813,95.436,540.867,538.488,0.0
53432.0,STARLINK-4557,PAYLOAD,2024-08-21 20:05:39,15.08843455,0.0002387,53.2161,119.5957,127.0813,233.0398,0.00053663,8.264e-05,0.0,0 STARLINK-4557,1 53432U 22097AW  24234.83726693  .00008264  00000-0  53663-3 0  9992,2 53432  53.2161 119.5957 0002387 127.0813 233.0398 15.08843455113518,6917.87,95.437,541.386,538.084,0.0
53432.0,STARLINK-4557,PAYLOAD,2024-08-21 23:16:26,15.08843234,0.0001515,53.2159,119.0091,101.8022,258.314,0.00035458,5.36e-05,0.0,0 STARLINK-4557,1 53432U 22097AW  24234.96974885  .00005360  00000-0  35458-3 0  9990,2 53432  53.2159 119.0091 0001515 101.8022 258.3140 15.08843234113052,6917.871,95.437,540.784,538.687,0.0
